{
  "norad_id": 47604,
  "name": "STARLINK-2021",
  "history": [
    {
      "epoch": "2026-03-28T18:30:12.764448",
      "apogee_km": 364.3103115550248,
      "perigee_km": 359.4096597467578,
      "latitude_deg": -46.5619500817566,
      "longitude_deg": 94.41418271977454,
      "semi_major_axis_km": 6739.996985650891,
      "eccentricity": 0.00036355,
      "inclination_deg": 53.041,
      "raan_deg": 242.0425,
      "arg_perigee_deg": 215.951,
      "mean_anomaly_deg": 144.1262,
      "mean_motion_rev_day": 15.6896483
    }
  ]
}