{"fetched_at":"2026-03-30T06:02:59Z","count":15439,"tles":[{"name":"STARLINK-2021","line1":"1 47604U 21009BJ  26087.77098107  .00129019  00000+0  10858-2 0  9990","line2":"2 47604  53.0410 242.0425 0003635 215.9510 144.1262 15.68964830284436","category":"Starlink"}]}